COSMOS 1933             
1 18958U 88020A   26053.10059645  .00002810  00000+0  13745-3 0  9998
2 18958  82.5102 266.3379 0002788 250.8455 109.2477 15.17831276 47867
SL-3 R/B                
1 19046U 88032B   26053.19430016  .00005771  00000+0  27153-3 0  9991
2 19046  97.5174  36.5056 0024216 289.8450  70.0175 15.19698445 49758
SL-16 R/B               
1 19120U 88039B   26053.26712387 -.00000130  00000+0 -38808-4 0  9999
2 19120  71.0135 101.1617 0021783 357.4054   2.6954 14.19613726956194
COSMOS 1953             
1 19210U 88050A   26053.30525870  .00009050  00000+0  32747-3 0  9999
2 19210  82.5102 173.7106 0011511 173.5239 186.6151 15.28207600 35431
SL-8 R/B                
1 19257U 88053B   26053.29043340  .00000239  00000+0  85925-4 0  9995
2 19257  74.0481 140.8498 0020981 322.5735  93.2463 14.38905757974388
COSMOS 1975             
1 19573U 88093A   26053.26915134  .00007769  00000+0  28462-3 0  9993
2 19573  82.5209 133.1592 0010837 218.8525 141.1937 15.27794304 17058
SL-14 R/B               
1 19574U 88093B   26053.29721552  .00000492  00000+0  53720-4 0  9998
2 19574  82.5281  56.4964 0022334  89.1571 285.6263 14.85636209998757
SL-16 R/B               
1 19650U 88102B   26053.29458940 -.00000176  00000+0 -64826-4 0  9992
2 19650  70.9998 183.8863 0013115  25.0845 335.0913 14.16151651924715
INTERCOSMOS 24          
1 20261U 89080A   26053.23462063  .00000628  00000+0  18483-3 0  9990
2 20261  82.6047 114.4666 1187223 328.7245  24.8142 12.59532897664854
SL-14 R/B               
1 20262U 89080C   26053.27209935  .00000582  00000+0  17416-3 0  9996
2 20262  82.5964 183.0814 1229924 219.9910 130.4044 12.50471818658229
DELTA 1 R/B             
1 20323U 89089B   26053.10111031  .00000242  00000+0  68536-4 0  9997
2 20323  97.0715 263.0179 0069320 170.7348 189.5148 14.50648579893475
ARIANE 40 R/B           
1 20443U 90005H   26053.10848065  .00000191  00000+0  74261-4 0  9999
2 20443  98.3120 114.2314 0009070 248.6406 111.3815 14.39858901890566
