CCSDS_OMM_VERS = 2.0
CREATION_DATE  = 
ORIGINATOR     = 

OBJECT_NAME    = COSMOS 1933
OBJECT_ID      = 1988-020A
CENTER_NAME    = EARTH
REF_FRAME      = TEME
TIME_SYSTEM    = UTC
MEAN_ELEMENT_THEORY = SGP/SGP4

EPOCH          = 2026-02-22T02:24:51.533280
MEAN_MOTION    = 15.17831276
ECCENTRICITY   = .0002788
INCLINATION    = 82.5102
RA_OF_ASC_NODE = 266.3379
ARG_OF_PERICENTER = 250.8455
MEAN_ANOMALY   = 109.2477

EPHEMERIS_TYPE = 0
CLASSIFICATION_TYPE = U
NORAD_CAT_ID   = 18958
ELEMENT_SET_NO = 999
REV_AT_EPOCH   = 4786
BSTAR          = .13745E-3
MEAN_MOTION_DOT = .281E-4
MEAN_MOTION_DDOT = 0

CCSDS_OMM_VERS = 2.0
CREATION_DATE  = 
ORIGINATOR     = 

OBJECT_NAME    = SL-3 R/B
OBJECT_ID      = 1988-032B
CENTER_NAME    = EARTH
REF_FRAME      = TEME
TIME_SYSTEM    = UTC
MEAN_ELEMENT_THEORY = SGP/SGP4

EPOCH          = 2026-02-22T04:39:47.533824
MEAN_MOTION    = 15.19698445
ECCENTRICITY   = .0024216
INCLINATION    = 97.5174
RA_OF_ASC_NODE = 36.5056
ARG_OF_PERICENTER = 289.8450
MEAN_ANOMALY   = 70.0175

EPHEMERIS_TYPE = 0
CLASSIFICATION_TYPE = U
NORAD_CAT_ID   = 19046
ELEMENT_SET_NO = 999
REV_AT_EPOCH   = 4975
BSTAR          = .27153E-3
MEAN_MOTION_DOT = .5771E-4
MEAN_MOTION_DDOT = 0

CCSDS_OMM_VERS = 2.0
CREATION_DATE  = 
ORIGINATOR     = 

OBJECT_NAME    = SL-16 R/B
OBJECT_ID      = 1988-039B
CENTER_NAME    = EARTH
REF_FRAME      = TEME
TIME_SYSTEM    = UTC
MEAN_ELEMENT_THEORY = SGP/SGP4

EPOCH          = 2026-02-22T06:24:39.502368
MEAN_MOTION    = 14.19613726
ECCENTRICITY   = .0021783
INCLINATION    = 71.0135
RA_OF_ASC_NODE = 101.1617
ARG_OF_PERICENTER = 357.4054
MEAN_ANOMALY   = 2.6954

EPHEMERIS_TYPE = 0
CLASSIFICATION_TYPE = U
NORAD_CAT_ID   = 19120
ELEMENT_SET_NO = 999
REV_AT_EPOCH   = 95619
BSTAR          = -.38808E-4
MEAN_MOTION_DOT = -.13E-5
MEAN_MOTION_DDOT = 0

CCSDS_OMM_VERS = 2.0
CREATION_DATE  = 
ORIGINATOR     = 

OBJECT_NAME    = COSMOS 1953
OBJECT_ID      = 1988-050A
CENTER_NAME    = EARTH
REF_FRAME      = TEME
TIME_SYSTEM    = UTC
MEAN_ELEMENT_THEORY = SGP/SGP4

EPOCH          = 2026-02-22T07:19:34.351680
MEAN_MOTION    = 15.28207600
ECCENTRICITY   = .0011511
INCLINATION    = 82.5102
RA_OF_ASC_NODE = 173.7106
ARG_OF_PERICENTER = 173.5239
MEAN_ANOMALY   = 186.6151

EPHEMERIS_TYPE = 0
CLASSIFICATION_TYPE = U
NORAD_CAT_ID   = 19210
ELEMENT_SET_NO = 999
REV_AT_EPOCH   = 3543
BSTAR          = .32747E-3
MEAN_MOTION_DOT = .905E-4
MEAN_MOTION_DDOT = 0

CCSDS_OMM_VERS = 2.0
CREATION_DATE  = 
ORIGINATOR     = 

OBJECT_NAME    = SL-8 R/B
OBJECT_ID      = 1988-053B
CENTER_NAME    = EARTH
REF_FRAME      = TEME
TIME_SYSTEM    = UTC
MEAN_ELEMENT_THEORY = SGP/SGP4

EPOCH          = 2026-02-22T06:58:13.445760
MEAN_MOTION    = 14.38905757
ECCENTRICITY   = .0020981
INCLINATION    = 74.0481
RA_OF_ASC_NODE = 140.8498
ARG_OF_PERICENTER = 322.5735
MEAN_ANOMALY   = 93.2463

EPHEMERIS_TYPE = 0
CLASSIFICATION_TYPE = U
NORAD_CAT_ID   = 19257
ELEMENT_SET_NO = 999
REV_AT_EPOCH   = 97438
BSTAR          = .85925E-4
MEAN_MOTION_DOT = .239E-5
MEAN_MOTION_DDOT = 0

CCSDS_OMM_VERS = 2.0
CREATION_DATE  = 
ORIGINATOR     = 

OBJECT_NAME    = COSMOS 1975
OBJECT_ID      = 1988-093A
CENTER_NAME    = EARTH
REF_FRAME      = TEME
TIME_SYSTEM    = UTC
MEAN_ELEMENT_THEORY = SGP/SGP4

EPOCH          = 2026-02-22T06:27:34.675776
MEAN_MOTION    = 15.27794304
ECCENTRICITY   = .0010837
INCLINATION    = 82.5209
RA_OF_ASC_NODE = 133.1592
ARG_OF_PERICENTER = 218.8525
MEAN_ANOMALY   = 141.1937

EPHEMERIS_TYPE = 0
CLASSIFICATION_TYPE = U
NORAD_CAT_ID   = 19573
ELEMENT_SET_NO = 999
REV_AT_EPOCH   = 1705
BSTAR          = .28462E-3
MEAN_MOTION_DOT = .7769E-4
MEAN_MOTION_DDOT = 0

CCSDS_OMM_VERS = 2.0
CREATION_DATE  = 
ORIGINATOR     = 

OBJECT_NAME    = SL-14 R/B
OBJECT_ID      = 1988-093B
CENTER_NAME    = EARTH
REF_FRAME      = TEME
TIME_SYSTEM    = UTC
MEAN_ELEMENT_THEORY = SGP/SGP4

EPOCH          = 2026-02-22T07:07:59.420928
MEAN_MOTION    = 14.85636209
ECCENTRICITY   = .0022334
INCLINATION    = 82.5281
RA_OF_ASC_NODE = 56.4964
ARG_OF_PERICENTER = 89.1571
MEAN_ANOMALY   = 285.6263

EPHEMERIS_TYPE = 0
CLASSIFICATION_TYPE = U
NORAD_CAT_ID   = 19574
ELEMENT_SET_NO = 999
REV_AT_EPOCH   = 99875
BSTAR          = .5372E-4
MEAN_MOTION_DOT = .492E-5
MEAN_MOTION_DDOT = 0

CCSDS_OMM_VERS = 2.0
CREATION_DATE  = 
ORIGINATOR     = 

OBJECT_NAME    = SL-16 R/B
OBJECT_ID      = 1988-102B
CENTER_NAME    = EARTH
REF_FRAME      = TEME
TIME_SYSTEM    = UTC
MEAN_ELEMENT_THEORY = SGP/SGP4

EPOCH          = 2026-02-22T07:04:12.524160
MEAN_MOTION    = 14.16151651
ECCENTRICITY   = .0013115
INCLINATION    = 70.9998
RA_OF_ASC_NODE = 183.8863
ARG_OF_PERICENTER = 25.0845
MEAN_ANOMALY   = 335.0913

EPHEMERIS_TYPE = 0
CLASSIFICATION_TYPE = U
NORAD_CAT_ID   = 19650
ELEMENT_SET_NO = 999
REV_AT_EPOCH   = 92471
BSTAR          = -.64826E-4
MEAN_MOTION_DOT = -.176E-5
MEAN_MOTION_DDOT = 0

CCSDS_OMM_VERS = 2.0
CREATION_DATE  = 
ORIGINATOR     = 

OBJECT_NAME    = INTERCOSMOS 24
OBJECT_ID      = 1989-080A
CENTER_NAME    = EARTH
REF_FRAME      = TEME
TIME_SYSTEM    = UTC
MEAN_ELEMENT_THEORY = SGP/SGP4

EPOCH          = 2026-02-22T05:37:51.222432
MEAN_MOTION    = 12.59532897
ECCENTRICITY   = .1187223
INCLINATION    = 82.6047
RA_OF_ASC_NODE = 114.4666
ARG_OF_PERICENTER = 328.7245
MEAN_ANOMALY   = 24.8142

EPHEMERIS_TYPE = 0
CLASSIFICATION_TYPE = U
NORAD_CAT_ID   = 20261
ELEMENT_SET_NO = 999
REV_AT_EPOCH   = 66485
BSTAR          = .18483E-3
MEAN_MOTION_DOT = .628E-5
MEAN_MOTION_DDOT = 0

CCSDS_OMM_VERS = 2.0
CREATION_DATE  = 
ORIGINATOR     = 

OBJECT_NAME    = SL-14 R/B
OBJECT_ID      = 1989-080C
CENTER_NAME    = EARTH
REF_FRAME      = TEME
TIME_SYSTEM    = UTC
MEAN_ELEMENT_THEORY = SGP/SGP4

EPOCH          = 2026-02-22T06:31:49.383840
MEAN_MOTION    = 12.50471818
ECCENTRICITY   = .1229924
INCLINATION    = 82.5964
RA_OF_ASC_NODE = 183.0814
ARG_OF_PERICENTER = 219.9910
MEAN_ANOMALY   = 130.4044

EPHEMERIS_TYPE = 0
CLASSIFICATION_TYPE = U
NORAD_CAT_ID   = 20262
ELEMENT_SET_NO = 999
REV_AT_EPOCH   = 65822
BSTAR          = .17416E-3
MEAN_MOTION_DOT = .582E-5
MEAN_MOTION_DDOT = 0

CCSDS_OMM_VERS = 2.0
CREATION_DATE  = 
ORIGINATOR     = 

OBJECT_NAME    = DELTA 1 R/B
OBJECT_ID      = 1989-089B
CENTER_NAME    = EARTH
REF_FRAME      = TEME
TIME_SYSTEM    = UTC
MEAN_ELEMENT_THEORY = SGP/SGP4

EPOCH          = 2026-02-22T02:25:35.930784
MEAN_MOTION    = 14.50648579
ECCENTRICITY   = .006932
INCLINATION    = 97.0715
RA_OF_ASC_NODE = 263.0179
ARG_OF_PERICENTER = 170.7348
MEAN_ANOMALY   = 189.5148

EPHEMERIS_TYPE = 0
CLASSIFICATION_TYPE = U
NORAD_CAT_ID   = 20323
ELEMENT_SET_NO = 999
REV_AT_EPOCH   = 89347
BSTAR          = .68536E-4
MEAN_MOTION_DOT = .242E-5
MEAN_MOTION_DDOT = 0

CCSDS_OMM_VERS = 2.0
CREATION_DATE  = 
ORIGINATOR     = 

OBJECT_NAME    = ARIANE 40 R/B
OBJECT_ID      = 1990-005H
CENTER_NAME    = EARTH
REF_FRAME      = TEME
TIME_SYSTEM    = UTC
MEAN_ELEMENT_THEORY = SGP/SGP4

EPOCH          = 2026-02-22T02:36:12.728160
MEAN_MOTION    = 14.39858901
ECCENTRICITY   = .000907
INCLINATION    = 98.3120
RA_OF_ASC_NODE = 114.2314
ARG_OF_PERICENTER = 248.6406
MEAN_ANOMALY   = 111.3815

EPHEMERIS_TYPE = 0
CLASSIFICATION_TYPE = U
NORAD_CAT_ID   = 20443
ELEMENT_SET_NO = 999
REV_AT_EPOCH   = 89056
BSTAR          = .74261E-4
MEAN_MOTION_DOT = .191E-5
MEAN_MOTION_DDOT = 0

